{
  "norad_id": 55362,
  "name": "STARLINK-5574",
  "history": [
    {
      "epoch": "2026-03-28T14:48:52.089120",
      "apogee_km": 487.54400146469743,
      "perigee_km": 483.53149720623605,
      "latitude_deg": 23.295083432794534,
      "longitude_deg": 135.45787679986097,
      "semi_major_axis_km": 6863.674749335467,
      "eccentricity": 0.0002923,
      "inclination_deg": 43.0042,
      "raan_deg": 181.3268,
      "arg_perigee_deg": 271.1464,
      "mean_anomaly_deg": 88.9052,
      "mean_motion_rev_day": 15.26749263
    }
  ]
}