{"fetched_at":"2026-03-29T16:36:15Z","count":15609,"tles":[{"name":"STARLINK-5574","line1":"1 55362U 23013AH  26087.61726955  .00002731  00000+0  11144-3 0  9990","line2":"2 55362  43.0042 181.3268 0002923 271.1464  88.9052 15.26749263174746","category":"Starlink"}]}